UNKNOWN                 
1 87557U          25352.33177384  .00004529  00000+0  99712-2 0  9994
2 87557 101.7325 208.5048 0076933 354.8830   5.1491 13.27815934565772
UNKNOWN                 
1 87561U          25351.09009088  .00000023  00000+0  53551-3 0  9993
2 87561 102.0099  48.5083 0174605 284.9503 102.5687 12.32155965542977
UNKNOWN                 
1 87565U          25352.42991324  .00000835  00000+0  47323-3 0  9999
2 87565  99.9460 344.5957 0172048 155.3759 205.5743 14.06001916617237
UNKNOWN                 
1 87569U          25350.28700429 -.00000028  00000+0  10586-3 0  9995
2 87569 101.9881 167.7771 0055552 246.3997 289.4862 12.68540909558914
UNKNOWN                 
1 87587U          25349.01410801  .00000257  00000+0  89615-4 0  9999
2 87587  74.0236  98.6890 0018898 139.1901 221.0673 14.40061598634133
UNKNOWN                 
1 87590U          25349.05788911  .00000653  00000+0  39111-3 0  9992
2 87590  98.7886  26.1235 0025910 276.3023 113.5151 14.10328826154570
UNKNOWN                 
1 87616U          25350.20136402  .00000550  00000+0  20211-2 0  9998
2 87616  66.0338 141.7528 0632245 137.6038  32.4783 12.46902986536664
UNKNOWN                 
1 87624U          25352.63869238  .00003817  00000+0  60065-3 0  9997
2 87624  98.6813 290.4493 0096615 229.6484 129.6253 14.70085315581148
UNKNOWN                 
1 87650U          25350.23539677  .00009157  00000+0  18343-2 0  9995
2 87650 100.2687 166.3353 0032985 271.7021  88.0395 14.61732089 80277
UNKNOWN                 
1 87672U          25350.77138338  .00001685  00000+0  68577-3 0  9990
2 87672  70.8586 357.9589 0064382 267.7260  91.6496 14.27850459625031
UNKNOWN                 
1 87681U          25344.96354660  .00002007  00000+0  21310-2 0  9994
2 87681  66.7360 102.8871 0155804 163.7958 196.8175 13.71111220601596
UNKNOWN                 
1 87690U          25350.27913423  .00003831  00000+0  59258-3 0  9992
2 87690  65.7947 344.8126 0578462  45.6832 319.0190 14.00421389607871
